{"type": "FeatureCollection", "features": [ {"type": "Feature", "properties": {"norad_id": 66979, "name": "STARLINK-36107", "group": "last-30-days", "lat": -37.894160078837196, "lon": -29.805508141066372, "alt_km": 368.04078376798225, "timestamp": "2025-12-24T18:55:54.778436+00:00", "meta": {"OBJECT_NAME": "STARLINK-36107", "OBJECT_ID": "2025-288W", "EPOCH": "2025-12-24T06:00:02.000160", "MEAN_MOTION": 15.69812323, "ECCENTRICITY": 0.0001287, "INCLINATION": 43.0004, "RA_OF_ASC_NODE": 96.7929, "ARG_OF_PERICENTER": 279.4938, "MEAN_ANOMALY": 158.2883, "EPHEMERIS_TYPE": 0, "CLASSIFICATION_TYPE": "U", "NORAD_CAT_ID": 66979, "ELEMENT_SET_NO": 999, "REV_AT_EPOCH": 368, "BSTAR": -0.017667103, "MEAN_MOTION_DOT": -0.01924062, "MEAN_MOTION_DDOT": 0}, "tle": {"line1": "1 66979U 25288W   25358.25002315 -.01924062  00000+0 -17667-1 0  9996", "line2": "2 66979  43.0004  96.7929 0001287 279.4938 158.2883 15.69812323  3684"}}, "geometry": {"type": "Point", "coordinates": [-29.805508141066372, -37.894160078837196]}}, {"type": "Feature", "properties": {"norad_id": 66980, "name": "STARLINK-36086", "group": "last-30-days", "lat": -38.5911348192348, "lon": -27.536352385691064, "alt_km": 367.9552343384721, "timestamp": "2025-12-24T18:55:54.778446+00:00", "meta": {"OBJECT_NAME": "STARLINK-36086", "OBJECT_ID": "2025-288X", "EPOCH": "2025-12-24T06:00:02.000160", "MEAN_MOTION": 15.69818448, "ECCENTRICITY": 0.0001339, "INCLINATION": 43.0003, "RA_OF_ASC_NODE": 96.7875, "ARG_OF_PERICENTER": 276.0568, "MEAN_ANOMALY": 163.6342, "EPHEMERIS_TYPE": 0, "CLASSIFICATION_TYPE": "U", "NORAD_CAT_ID": 66980, "ELEMENT_SET_NO": 999, "REV_AT_EPOCH": 368, "BSTAR": -0.017678522, "MEAN_MOTION_DOT": -0.01925641, "MEAN_MOTION_DDOT": 0}, "tle": {"line1": "1 66980U 25288X   25358.25002315 -.01925641  00000+0 -17679-1 0  9995", "line2": "2 66980  43.0003  96.7875 0001339 276.0568 163.6342 15.69818448  3689"}}, "geometry": {"type": "Point", "coordinates": [-27.536352385691064, -38.5911348192348]}}, {"type": "Feature", "properties": {"norad_id": 66981, "name": "STARLINK-36142", "group": "last-30-days", "lat": -39.242114711795956, "lon": -25.227114828522154, "alt_km": 367.9676125757551, "timestamp": "2025-12-24T18:55:54.778458+00:00", "meta": {"OBJECT_NAME": "STARLINK-36142", "OBJECT_ID": "2025-288Y", "EPOCH": "2025-12-24T06:00:02.000160", "MEAN_MOTION": 15.69815923, "ECCENTRICITY": 0.00013564, "INCLINATION": 43.0002, "RA_OF_ASC_NODE": 96.7832, "ARG_OF_PERICENTER": 277.3136, "MEAN_ANOMALY": 164.2956, "EPHEMERIS_TYPE": 0, "CLASSIFICATION_TYPE": "U", "NORAD_CAT_ID": 66981, "ELEMENT_SET_NO": 999, "REV_AT_EPOCH": 368, "BSTAR": -0.017651274, "MEAN_MOTION_DOT": -0.01922845, "MEAN_MOTION_DDOT": 0}, "tle": {"line1": "1 66981U 25288Y   25358.25002315 -.01922845  00000+0 -17651-1 0  9999", "line2": "2 66981  43.0002  96.7832 0001356 277.3136 164.2956 15.69815923  3689"}}, "geometry": {"type": "Point", "coordinates": [-25.227114828522154, -39.242114711795956]}}, {"type": "Feature", "properties": {"norad_id": 66982, "name": "STARLINK-36113", "group": "last-30-days", "lat": -39.84679103723546, "lon": -22.876770288657177, "alt_km": 368.01813049745306, "timestamp": "2025-12-24T18:55:54.778468+00:00", "meta": {"OBJECT_NAME": "STARLINK-36113", "OBJECT_ID": "2025-288Z", "EPOCH": "2025-12-24T06:00:02.000160", "MEAN_MOTION": 15.69818454, "ECCENTRICITY": 0.00012965, "INCLINATION": 43.0003, "RA_OF_ASC_NODE": 96.7778, "ARG_OF_PERICENTER": 277.8648, "MEAN_ANOMALY": 165.6599, "EPHEMERIS_TYPE": 0, "CLASSIFICATION_TYPE": "U", "NORAD_CAT_ID": 66982, "ELEMENT_SET_NO": 999, "REV_AT_EPOCH": 368, "BSTAR": -0.017681123, "MEAN_MOTION_DOT": -0.0192586, "MEAN_MOTION_DDOT": 0}, "tle": {"line1": "1 66982U 25288Z   25358.25002315 -.01925860  00000+0 -17681-1 0  9993", "line2": "2 66982  43.0003  96.7778 0001296 277.8648 165.6599 15.69818454  3686"}}, "geometry": {"type": "Point", "coordinates": [-22.876770288657177, -39.84679103723546]}}, {"type": "Feature", "properties": {"norad_id": 66983, "name": "STARLINK-36145", "group": "last-30-days", "lat": -40.90921918045309, "lon": -18.054327320282777, "alt_km": 368.1873206627297, "timestamp": "2025-12-24T18:55:54.778479+00:00", "meta": {"OBJECT_NAME": "STARLINK-36145", "OBJECT_ID": "2025-288AA", "EPOCH": "2025-12-24T06:00:02.000160", "MEAN_MOTION": 15.69799324, "ECCENTRICITY": 0.00010987, "INCLINATION": 43.0004, "RA_OF_ASC_NODE": 96.7685, "ARG_OF_PERICENTER": 283.4045, "MEAN_ANOMALY": 163.9649, "EPHEMERIS_TYPE": 0, "CLASSIFICATION_TYPE": "U", "NORAD_CAT_ID": 66983, "ELEMENT_SET_NO": 999, "REV_AT_EPOCH": 368, "BSTAR": -0.017461351, "MEAN_MOTION_DOT": -0.01903133, "MEAN_MOTION_DDOT": 0}, "tle": {"line1": "1 66983U 25288AA  25358.25002315 -.01903133  00000+0 -17461-1 0  9999", "line2": "2 66983  43.0004  96.7685 0001098 283.4045 163.9649 15.69799324  3680"}}, "geometry": {"type": "Point", "coordinates": [-18.054327320282777, -40.90921918045309]}}, {"type": "Feature", "properties": {"norad_id": 66984, "name": "STARLINK-35591", "group": "last-30-days", "lat": -40.402979616144805, "lon": -20.486232434317458, "alt_km": 368.06157072293263, "timestamp": "2025-12-24T18:55:54.778489+00:00", "meta": {"OBJECT_NAME": "STARLINK-35591", "OBJECT_ID": "2025-288AB", "EPOCH": "2025-12-24T06:00:02.000160", "MEAN_MOTION": 15.69811088, "ECCENTRICITY": 0.00012515, "INCLINATION": 43.0004, "RA_OF_ASC_NODE": 96.7725, "ARG_OF_PERICENTER": 278.4187, "MEAN_ANOMALY": 167.0315, "EPHEMERIS_TYPE": 0, "CLASSIFICATION_TYPE": "U", "NORAD_CAT_ID": 66984, "ELEMENT_SET_NO": 999, "REV_AT_EPOCH": 368, "BSTAR": -0.017640669, "MEAN_MOTION_DOT": -0.01921397, "MEAN_MOTION_DDOT": 0}, "tle": {"line1": "1 66984U 25288AB  25358.25002315 -.01921397  00000+0 -17641-1 0  9992", "line2": "2 66984  43.0004  96.7725 0001251 278.4187 167.0315 15.69811088  3685"}}, "geometry": {"type": "Point", "coordinates": [-20.486232434317458, -40.402979616144805]}}, {"type": "Feature", "properties": {"norad_id": 66985, "name": "STARLINK-36103", "group": "last-30-days", "lat": -41.362913485066066, "lon": -15.591559020174058, "alt_km": 368.0042752171703, "timestamp": "2025-12-24T18:55:54.778499+00:00", "meta": {"OBJECT_NAME": "STARLINK-36103", "OBJECT_ID": "2025-288AC", "EPOCH": "2025-12-24T06:00:02.000160", "MEAN_MOTION": 15.69817017, "ECCENTRICITY": 0.00013466, "INCLINATION": 43.0005, "RA_OF_ASC_NODE": 96.7634, "ARG_OF_PERICENTER": 279.1462, "MEAN_ANOMALY": 170.1298, "EPHEMERIS_TYPE": 0, "CLASSIFICATION_TYPE": "U", "NORAD_CAT_ID": 66985, "ELEMENT_SET_NO": 999, "REV_AT_EPOCH": 368, "BSTAR": -0.017658093, "MEAN_MOTION_DOT": -0.01923573, "MEAN_MOTION_DDOT": 0}, "tle": {"line1": "1 66985U 25288AC  25358.25002315 -.01923573  00000+0 -17658-1 0  9999", "line2": "2 66985  43.0005  96.7634 0001346 279.1462 170.1298 15.69817017  3688"}}, "geometry": {"type": "Point", "coordinates": [-15.591559020174058, -41.362913485066066]}}, {"type": "Feature", "properties": {"norad_id": 66986, "name": "STARLINK-36135", "group": "last-30-days", "lat": -41.763368007492694, "lon": -13.093859720341506, "alt_km": 368.0019965949723, "timestamp": "2025-12-24T18:55:54.778509+00:00", "meta": {"OBJECT_NAME": "STARLINK-36135", "OBJECT_ID": "2025-288AD", "EPOCH": "2025-12-24T06:00:02.000160", "MEAN_MOTION": 15.69808129, "ECCENTRICITY": 0.00013483, "INCLINATION": 43.0004, "RA_OF_ASC_NODE": 96.758, "ARG_OF_PERICENTER": 280.0547, "MEAN_ANOMALY": 171.1437, "EPHEMERIS_TYPE": 0, "CLASSIFICATION_TYPE": "U", "NORAD_CAT_ID": 66986, "ELEMENT_SET_NO": 999, "REV_AT_EPOCH": 368, "BSTAR": -0.017559178, "MEAN_MOTION_DOT": -0.01913392, "MEAN_MOTION_DDOT": 0}, "tle": {"line1": "1 66986U 25288AD  25358.25002315 -.01913392  00000+0 -17559-1 0  9998", "line2": "2 66986  43.0004  96.7580 0001348 280.0547 171.1437 15.69808129  3685"}}, "geometry": {"type": "Point", "coordinates": [-13.093859720341506, -41.763368007492694]}}, {"type": "Feature", "properties": {"norad_id": 66987, "name": "STARLINK-36147", "group": "last-30-days", "lat": -42.10838210998809, "lon": -10.567830781287983, "alt_km": 368.07613611018496, "timestamp": "2025-12-24T18:55:54.778519+00:00", "meta": {"OBJECT_NAME": "STARLINK-36147", "OBJECT_ID": "2025-288AE", "EPOCH": "2025-12-24T06:00:02.000160", "MEAN_MOTION": 15.69820584, "ECCENTRICITY": 0.00012502, "INCLINATION": 43.0001, "RA_OF_ASC_NODE": 96.7538, "ARG_OF_PERICENTER": 280.4304, "MEAN_ANOMALY": 172.677, "EPHEMERIS_TYPE": 0, "CLASSIFICATION_TYPE": "U", "NORAD_CAT_ID": 66987, "ELEMENT_SET_NO": 999, "REV_AT_EPOCH": 368, "BSTAR": -0.017696539, "MEAN_MOTION_DOT": -0.01927466, "MEAN_MOTION_DDOT": 0}, "tle": {"line1": "1 66987U 25288AE  25358.25002315 -.01927466  00000+0 -17697-1 0  9999", "line2": "2 66987  43.0001  96.7538 0001250 280.4304 172.6770 15.69820584  3688"}}, "geometry": {"type": "Point", "coordinates": [-10.567830781287983, -42.10838210998809]}}, {"type": "Feature", "properties": {"norad_id": 66988, "name": "YAOGAN-47", "group": "last-30-days", "lat": 34.97069986343166, "lon": -110.75420461672067, "alt_km": 493.58971114643737, "timestamp": "2025-12-24T18:55:54.778528+00:00", "meta": {"OBJECT_NAME": "YAOGAN-47", "OBJECT_ID": "2025-289A", "EPOCH": "2025-12-20T02:21:43.539840", "MEAN_MOTION": 15.23243112, "ECCENTRICITY": 6.467e-05, "INCLINATION": 97.5265, "RA_OF_ASC_NODE": 59.2376, "ARG_OF_PERICENTER": 91.4531, "MEAN_ANOMALY": 268.678, "EPHEMERIS_TYPE": 0, "CLASSIFICATION_TYPE": "U", "NORAD_CAT_ID": 66988, "ELEMENT_SET_NO": 999, "REV_AT_EPOCH": 166, "BSTAR": 0.00010945697, "MEAN_MOTION_DOT": 2.52e-05, "MEAN_MOTION_DDOT": 0}, "tle": {"line1": "1 66988U 25289A   25354.09842060  .00002520  00000+0  10946-3 0  9992", "line2": "2 66988  97.5265  59.2376 0000646  91.4531 268.6780 15.23243112  1668"}}, "geometry": {"type": "Point", "coordinates": [-110.75420461672067, 34.97069986343166]}}]}